CUBEBUG-2 (LO-74)       
1 39440U 13066AA  26202.29005105  .00002255  00000+0  21108-3 0  9998
2 39440  97.8921 151.4218 0055511 274.6858  84.8023 14.93994486682083
FUNCUBE-1 (AO-73)       
1 39444U 13066AE  26201.85964422  .00005490  00000+0  33755-3 0  9994
2 39444  97.8300 174.0216 0038088  89.2835 271.2758 15.09868744684749
UWE-3                   
1 39446U 13066AG  26201.83392220  .00002531  00000+0  21910-3 0  9998
2 39446  97.8725 158.1433 0047714 205.2045 154.6848 14.97225341682619
UNISAT-6                
1 40012U 14033C   26202.01763232  .00001370  00000+0  15141-3 0  9999
2 40012  97.7917 354.1444 0043758 318.2215  41.5663 14.88381654651198
DUCHIFAT-1              
1 40021U 14033M   26202.21894455  .00130824  00000+0  97934-3 0  9990
2 40021  98.0413 266.3688 0003510 228.2270 131.8692 15.72257776661085
QB50P1                  
1 40025U 14033R   26202.28387222  .00005913  00000+0  28813-3 0  9990
2 40025  98.0974 215.8333 0010548 106.9805 253.2584 15.18724396658208
LILACSAT-2              
1 40908U 15049K   26202.25065938  .00014426  00000+0  23673-3 0  9990
2 40908  97.4628 240.4062 0008631 123.8839 236.3236 15.52501410601038
FOX-1A (AO-85)          
1 40967U 15058D   26202.15655121  .00002672  00000+0  24218-3 0  9999
2 40967  64.7739 173.4037 0132873  43.5454 317.6056 14.91113173118636
CAS-2T & KS-1Q          
1 41847U 16066G   26201.82994351  .00000501  00000+0  78947-4 0  9999
2 41847  98.3810 277.1812 0341952  27.6850 334.2092 14.44776648509654
RADFXSAT (FOX-1B)       
1 43017U 17073E   26202.13716042  .00004895  00000+0  21386-3 0  9997
2 43017  97.4661  68.6602 0148512 210.7859 148.4600 15.13109870470527
DIWATA-2B               
1 43678U 18084H   26202.24572228  .00000744  00000+0  64113-4 0  9996
2 43678  98.1221  39.9465 0012486  65.6947 294.5578 15.00574982421320
ES'HAIL 2               
1 43700U 18090A   26202.26497398  .00000145  00000+0  00000+0 0  9990
2 43700   0.0140 324.3139 0002412 190.2603 265.6382  1.00272765 28019
FOX-1CLIFF (AO-95)      
1 43770U 18099N   26202.15199783  .00008166  00000+0  30737-3 0  9996
2 43770  97.4362 262.2850 0007782 216.1376 143.9338 15.27351154418401
ITASAT                  
1 43786U 18099AE  26202.07320102  .00004515  00000+0  21603-3 0  9991
2 43786  97.4007 252.9134 0011242 227.6002 132.4282 15.19425328418052
JY1SAT (JO-97)          
1 43803U 18099AX  26202.14241807  .00012901  00000+0  38617-3 0  9994
2 43803  97.4107 265.1154 0007290 140.3505 219.8272 15.34641749418837
UWE-4                   
1 43880U 18111E   26202.04102853  .00025610  00000+0  48956-3 0  9998
2 43880  97.5826 132.0428 0007082 172.9237 187.2114 15.48058115416014
TIANYAN 01              
1 44881U 19093C   26202.23893228  .00000859  00000+0  10282-3 0  9993
2 44881  97.7512 273.6387 0013000 341.6041  18.4703 14.86568072356472
RS-44 & BREEZE-KM R/B   
1 44909U 19096E   26202.24820673  .00000004  00000+0 -35604-4 0  9991
2 44909  82.5240 317.0735 0218399  64.9041 297.4550 12.79748825306702
SALSAT                  
1 46495U 20068K   26202.28424147  .00005612  00000+0  19458-3 0  9991
2 46495  97.8867 207.4380 0009855 171.6754 188.4651 15.30225780320570
XW-3 (CAS-9)            
1 50466U 21131B   26202.27790316  .00000255  00000+0  92434-4 0  9993
2 50466  98.4982 294.4839 0004185  14.6054 345.5255 14.41384895240024
GREENCUBE (IO-117)      
1 53109U 22080E   26202.26867320 -.00000003  00000+0  00000+0 0  9998
2 53109  70.1384 286.3946 0009377 282.6707  77.2904  6.42583331 94253
UMKA 1 (RS40S)          
1 57172U 23091G   26202.23783260  .00004441  00000+0  20216-3 0  9996
2 57172  97.5027 260.8084 0012403   9.1459 351.0000 15.21161665169188
CUBESX-HSE 3 (RS42S)    
1 57178U 23091N   26202.21179630  .00009823  00000+0  32030-3 0  9996
2 57178  97.5069 268.2448 0009081 339.1721  20.9149 15.31975207169634
MONITOR-3 (RS58S)       
1 57180U 23091Q   26202.18225474  .00007554  00000+0  27519-3 0  9998
2 57180  97.5061 265.8891 0010352 347.9647  12.1343 15.28442490169482
MONITOR-4 (RS57S)       
1 57182U 23091S   26202.22487481  .00007730  00000+0  28076-3 0  9998
2 57182  97.5055 265.9052 0010369 348.0704  12.0288 15.28531580169498
MONITOR-2 (RS39S)       
1 57184U 23091U   26202.23676118  .00003536  00000+0  17117-3 0  9992
2 57184  97.5050 260.3020 0010779   3.4953 356.6355 15.19187570169120
SVYATOBOR 1 (RS60S)     
1 57187U 23091X   26202.26834745  .00006522  00000+0  24784-3 0  9996
2 57187  97.5068 266.2829 0008117 342.1731  17.9222 15.27123704169515
VIZARD-METEO (RS38S)    
1 57189U 23091Z   26202.27202766  .00012812  00000+0  35605-3 0  9994
2 57189  97.5069 272.4623 0005229 313.1256  46.9550 15.36993495169923
POLYTECH-UNIVERSE 3 (R*)
1 57191U 23091AB  26202.25929512  .00003464  00000+0  16645-3 0  9996
2 57191  97.5027 259.8287 0015506  17.4213 342.7550 15.19401004169121
UTMN 2 (RS27S)          
1 57203U 23091AP  26202.21109369  .00009772  00000+0  31089-3 0  9993
2 57203  97.5065 269.9192 0006209 325.9823  34.1019 15.32790044169759
