OBJECT_NAME,OBJECT_ID,EPOCH,MEAN_MOTION,ECCENTRICITY,INCLINATION,RA_OF_ASC_NODE,ARG_OF_PERICENTER,MEAN_ANOMALY,EPHEMERIS_TYPE,CLASSIFICATION_TYPE,NORAD_CAT_ID,ELEMENT_SET_NO,REV_AT_EPOCH,BSTAR,MEAN_MOTION_DOT,MEAN_MOTION_DDOT
CUBEBUG-2 (LO-74),2013-066AA,2026-07-21T06:57:40.410720,14.93994486,.0055511,97.8921,151.4218,274.6858,84.8023,0,U,39440,999,68208,.21107605E-3,.2255E-4,0
FUNCUBE-1 (AO-73),2013-066AE,2026-07-20T20:37:53.260608,15.09868744,.00380881,97.8300,174.0216,89.2835,271.2758,0,U,39444,999,68474,.33754949E-3,.549E-4,0
UWE-3,2013-066AG,2026-07-20T20:00:50.878080,14.97225341,.00477145,97.8725,158.1433,205.2045,154.6848,0,U,39446,999,68261,.21910495E-3,.2531E-4,0
UNISAT-6,2014-033C,2026-07-21T00:25:23.432448,14.88381654,.00437583,97.7917,354.1444,318.2215,41.5663,0,U,40012,999,65119,.15140857E-3,.137E-4,0
DUCHIFAT-1,2014-033M,2026-07-21T05:15:16.809120,15.72257776,.00035106,98.0413,266.3688,228.2270,131.8692,0,U,40021,999,66108,.97934066E-3,.130824E-2,0
QB50P1,2014-033R,2026-07-21T06:48:46.559808,15.18724396,.00105488,98.0974,215.8333,106.9805,253.2584,0,U,40025,999,65820,.2881269E-3,.5913E-4,0
LILACSAT-2,2015-049K,2026-07-21T06:00:56.970432,15.52501410,.00086312,97.4628,240.4062,123.8839,236.3236,0,U,40908,999,60103,.23673154E-3,.14426E-3,0
FOX-1A (AO-85),2015-058D,2026-07-21T03:45:26.024544,14.91113173,.01328739,64.7739,173.4037,43.5454,317.6056,0,U,40967,999,11863,.24217856E-3,.2672E-4,0
CAS-2T & KS-1Q,2016-066G,2026-07-20T19:55:07.119264,14.44776648,.03419526,98.3810,277.1812,27.6850,334.2092,0,U,41847,999,50965,.78947371E-4,.501E-5,0
RADFXSAT (FOX-1B),2017-073E,2026-07-21T03:17:30.660288,15.13109870,.01485129,97.4661,68.6602,210.7859,148.4600,0,U,43017,999,47052,.21386164E-3,.4895E-4,0
DIWATA-2B,2018-084H,2026-07-21T05:53:50.404992,15.00574982,.00124865,98.1221,39.9465,65.6947,294.5578,0,U,43678,999,42132,.64112745E-4,.744E-5,0
ES'HAIL 2,2018-090A,2026-07-21T06:21:33.751872,1.00272765,.00024121,0.0140,324.3139,190.2603,265.6382,0,U,43700,999,2801,0,.145E-5,0
FOX-1CLIFF (AO-95),2018-099N,2026-07-21T03:38:52.612512,15.27351154,.00077823,97.4362,262.2850,216.1376,143.9338,0,U,43770,999,41840,.30737024E-3,.8166E-4,0
ITASAT,2018-099AE,2026-07-21T01:45:24.568128,15.19425328,.00112426,97.4007,252.9134,227.6002,132.4282,0,U,43786,999,41805,.21603429E-3,.4515E-4,0
JY1SAT (JO-97),2018-099AX,2026-07-21T03:25:04.921248,15.34641749,.00072902,97.4107,265.1154,140.3505,219.8272,0,U,43803,999,41883,.38617271E-3,.12901E-3,0
UWE-4,2018-111E,2026-07-21T00:59:04.864992,15.48058115,.00070826,97.5826,132.0428,172.9237,187.2114,0,U,43880,999,41601,.48955653E-3,.2561E-3,0
TIANYAN 01,2019-093C,2026-07-21T05:44:03.748992,14.86568072,.00130007,97.7512,273.6387,341.6041,18.4703,0,U,44881,999,35647,.10282012E-3,.859E-5,0
RS-44 & BREEZE-KM R/B,2019-096E,2026-07-21T05:57:25.061472,12.79748825,.02183994,82.5240,317.0735,64.9041,297.4550,0,U,44909,999,30670,-.35604394E-4,.4E-7,0
SALSAT,2020-068K,2026-07-21T06:49:18.463008,15.30225780,.00098552,97.8867,207.4380,171.6754,188.4651,0,U,46495,999,32057,.19458409E-3,.5612E-4,0
XW-3 (CAS-9),2021-131B,2026-07-21T06:40:10.833024,14.41384895,.00041852,98.4982,294.4839,14.6054,345.5255,0,U,50466,999,24002,.92433624E-4,.255E-5,0
GREENCUBE (IO-117),2022-080E,2026-07-21T06:26:53.364480,6.42583331,.0009377,70.1384,286.3946,282.6707,77.2904,0,U,53109,999,9425,0,-.3E-7,0
UMKA 1 (RS40S),2023-091G,2026-07-21T05:42:28.736640,15.21161665,.0012403,97.5027,260.8084,9.1459,351.0000,0,U,57172,999,16918,.20215626E-3,.4441E-4,0
CUBESX-HSE 3 (RS42S),2023-091N,2026-07-21T05:04:59.200320,15.31975207,.00090812,97.5069,268.2448,339.1721,20.9149,0,U,57178,999,16963,.32030367E-3,.9823E-4,0
MONITOR-3 (RS58S),2023-091Q,2026-07-21T04:22:26.809536,15.28442490,.00103524,97.5061,265.8891,347.9647,12.1343,0,U,57180,999,16948,.27519034E-3,.7554E-4,0
MONITOR-4 (RS57S),2023-091S,2026-07-21T05:23:49.183584,15.28531580,.00103699,97.5055,265.9052,348.0704,12.0288,0,U,57182,999,16949,.28076225E-3,.773E-4,0
MONITOR-2 (RS39S),2023-091U,2026-07-21T05:40:56.165952,15.19187570,.00107796,97.5050,260.3020,3.4953,356.6355,0,U,57184,999,16912,.17117192E-3,.3536E-4,0
SVYATOBOR 1 (RS60S),2023-091X,2026-07-21T06:26:25.219680,15.27123704,.00081177,97.5068,266.2829,342.1731,17.9222,0,U,57187,999,16951,.24783554E-3,.6522E-4,0
VIZARD-METEO (RS38S),2023-091Z,2026-07-21T06:31:43.189824,15.36993495,.0005229,97.5069,272.4623,313.1256,46.9550,0,U,57189,999,16992,.35604808E-3,.12812E-3,0
POLYTECH-UNIVERSE 3 (RS46S),2023-091AB,2026-07-21T06:13:23.098368,15.19401004,.00155067,97.5027,259.8287,17.4213,342.7550,0,U,57191,999,16912,.16645485E-3,.3464E-4,0
UTMN 2 (RS27S),2023-091AP,2026-07-21T05:03:58.494816,15.32790044,.00062092,97.5065,269.9192,325.9823,34.1019,0,U,57203,999,16975,.31088913E-3,.9772E-4,0
